[{"OBJECT_NAME":"STARLINK-30371","OBJECT_ID":"2023-131D","EPOCH":"2026-03-09T06:28:41.706624","MEAN_MOTION":15.02535192,"ECCENTRICITY":0.00015763,"INCLINATION":43.0017,"RA_OF_ASC_NODE":173.8442,"ARG_OF_PERICENTER":268.2057,"MEAN_ANOMALY":91.8605,"EPHEMERIS_TYPE":0,"CLASSIFICATION_TYPE":"U","NORAD_CAT_ID":57735,"ELEMENT_SET_NO":999,"REV_AT_EPOCH":13986,"BSTAR":-3.612813e-6,"MEAN_MOTION_DOT":-2.52e-6,"MEAN_MOTION_DDOT":0},{"OBJECT_NAME":"KUIPER-00139","OBJECT_ID":"2025-217D","EPOCH":"2026-03-09T07:26:02.378400","MEAN_MOTION":15.01890214,"ECCENTRICITY":0.00071199,"INCLINATION":51.8865,"RA_OF_ASC_NODE":35.54,"ARG_OF_PERICENTER":318.901,"MEAN_ANOMALY":41.1425,"EPHEMERIS_TYPE":0,"CLASSIFICATION_TYPE":"U","NORAD_CAT_ID":65765,"ELEMENT_SET_NO":999,"REV_AT_EPOCH":2495,"BSTAR":0.00087196011,"MEAN_MOTION_DOT":0.00011274,"MEAN_MOTION_DDOT":0}]
