STARLINK-30371          
1 57735U 23131D   26068.26992716 -.00000252  00000+0 -36128-5 0  9996
2 57735  43.0017 173.8442 0001576 268.2057  91.8605 15.02535192139861
KUIPER-00139            
1 65765U 25217D   26068.30974975  .00011274  00000+0  87196-3 0  9990
2 65765  51.8865  35.5400 0007119 318.9010  41.1425 15.01890214 24959
